dump_location_id,area_id,location_name,address,latitude,longitude,created_at,updated_at
52,1,"Chennai Landfill 1","Beach Road, Chennai",13.082700,80.270700,"2025-10-12 23:55:32","2025-10-12 23:55:32"
53,1,"Chennai Landfill 2","Anna Nagar, Chennai",13.087800,80.278000,"2025-10-12 23:55:32","2025-10-12 23:55:32"
54,2,"Kolkata Dump 1","Salt Lake, Kolkata",22.572600,88.363900,"2025-10-12 23:55:32","2025-10-12 23:55:32"
55,2,"Kolkata Dump 2","Garia, Kolkata",22.495800,88.369600,"2025-10-12 23:55:32","2025-10-12 23:55:32"
56,3,"Mumbai Dump 1","Andheri East, Mumbai",19.119000,72.846900,"2025-10-12 23:55:32","2025-10-12 23:55:32"
57,3,"Mumbai Dump 2","Borivali, Mumbai",19.226500,72.856700,"2025-10-12 23:55:32","2025-10-12 23:55:32"
58,4,"Delhi Dump 1","Okhla, Delhi",28.535500,77.391000,"2025-10-12 23:55:32","2025-10-12 23:55:32"
59,4,"Delhi Dump 2","Rohini, Delhi",28.704100,77.102500,"2025-10-12 23:55:32","2025-10-12 23:55:32"
60,5,"Bengaluru Dump 1","Whitefield, Bengaluru",12.971600,77.594600,"2025-10-12 23:55:32","2025-10-12 23:55:32"
61,5,"Bengaluru Dump 2","Electronic City, Bengaluru",12.849700,77.668300,"2025-10-12 23:55:32","2025-10-12 23:55:32"
62,6,"Hyderabad Dump 1","Miyapur, Hyderabad",17.439900,78.498300,"2025-10-12 23:55:32","2025-10-12 23:55:32"
63,6,"Hyderabad Dump 2","Banjara Hills, Hyderabad",17.423900,78.473800,"2025-10-12 23:55:32","2025-10-12 23:55:32"
64,7,"Pune Dump 1","Hinjewadi, Pune",18.591300,73.741600,"2025-10-12 23:55:32","2025-10-12 23:55:32"
65,7,"Pune Dump 2","Kothrud, Pune",18.503400,73.811200,"2025-10-12 23:55:32","2025-10-12 23:55:32"
66,8,"Ahmedabad Dump 1","Maninagar, Ahmedabad",23.022500,72.571400,"2025-10-12 23:55:32","2025-10-12 23:55:32"
67,8,"Ahmedabad Dump 2","Navrangpura, Ahmedabad",23.037100,72.518700,"2025-10-12 23:55:32","2025-10-12 23:55:32"
68,9,"Jaipur Dump 1","Malviya Nagar, Jaipur",26.912400,75.787300,"2025-10-12 23:55:32","2025-10-12 23:55:32"
69,9,"Jaipur Dump 2","C-Scheme, Jaipur",26.918600,75.808000,"2025-10-12 23:55:32","2025-10-12 23:55:32"
70,10,"Lucknow Dump 1","Alambagh, Lucknow",26.846700,80.946200,"2025-10-12 23:55:32","2025-10-12 23:55:32"
71,10,"Lucknow Dump 2","Hazratganj, Lucknow",26.847000,80.947000,"2025-10-12 23:55:32","2025-10-12 23:55:32"
72,11,"Kochi Dump 1","Ernakulam, Kochi",9.931200,76.267300,"2025-10-12 23:55:32","2025-10-12 23:55:32"
73,11,"Kochi Dump 2","Fort Kochi, Kochi",9.963000,76.242700,"2025-10-12 23:55:32","2025-10-12 23:55:32"
74,12,"Visakhapatnam Dump 1","Dwaraka Nagar, Vizag",17.686800,83.218500,"2025-10-12 23:55:32","2025-10-12 23:55:32"
75,12,"Visakhapatnam Dump 2","Gajuwaka, Vizag",17.686000,83.203000,"2025-10-12 23:55:32","2025-10-12 23:55:32"
76,13,"Surat Dump 1","Varachha Road, Surat",21.170200,72.831100,"2025-10-12 23:55:32","2025-10-12 23:55:32"
77,13,"Surat Dump 2","Katargam, Surat",21.202000,72.836100,"2025-10-12 23:55:32","2025-10-12 23:55:32"
78,14,"Indore Dump 1","Palasia, Indore",22.719600,75.857700,"2025-10-12 23:55:32","2025-10-12 23:55:32"
79,14,"Indore Dump 2","Vijay Nagar, Indore",22.718900,75.857500,"2025-10-12 23:55:32","2025-10-12 23:55:32"
80,15,"Nagpur Dump 1","Sitabuldi, Nagpur",21.145800,79.088200,"2025-10-12 23:55:32","2025-10-12 23:55:32"
81,15,"Nagpur Dump 2","Dharampeth, Nagpur",21.144900,79.089000,"2025-10-12 23:55:32","2025-10-12 23:55:32"
82,16,"Coimbatore Dump 1","Peelamedu, Coimbatore",11.016800,76.955800,"2025-10-12 23:55:32","2025-10-12 23:55:32"
83,16,"Coimbatore Dump 2","Gandhipuram, Coimbatore",11.016000,76.956000,"2025-10-12 23:55:32","2025-10-12 23:55:32"
84,17,"Thiruvananthapuram Dump 1","Vazhuthacaud, Trivandrum",8.524100,76.936600,"2025-10-12 23:55:32","2025-10-12 23:55:32"
85,17,"Thiruvananthapuram Dump 2","Kowdiar, Trivandrum",8.528500,76.939400,"2025-10-12 23:55:32","2025-10-12 23:55:32"
86,18,"Bhopal Dump 1","Arera Colony, Bhopal",23.259900,77.412600,"2025-10-12 23:55:32","2025-10-12 23:55:32"
87,18,"Bhopal Dump 2","Bairagarh, Bhopal",23.252200,77.414300,"2025-10-12 23:55:32","2025-10-12 23:55:32"
88,19,"Chandigarh Dump 1","Sector 17, Chandigarh",30.733300,76.779400,"2025-10-12 23:55:32","2025-10-12 23:55:32"
89,19,"Chandigarh Dump 2","Sector 22, Chandigarh",30.736900,76.782300,"2025-10-12 23:55:32","2025-10-12 23:55:32"
90,20,"Patna Dump 1","Kankarbagh, Patna",25.594100,85.137600,"2025-10-12 23:55:32","2025-10-12 23:55:32"
91,20,"Patna Dump 2","Patna City, Patna",25.601000,85.139000,"2025-10-12 23:55:32","2025-10-12 23:55:32"
92,21,"Varanasi Dump 1","Godowlia, Varanasi",25.317600,82.973900,"2025-10-12 23:55:32","2025-10-12 23:55:32"
93,21,"Varanasi Dump 2","Bhelupur, Varanasi",25.319000,82.970000,"2025-10-12 23:55:32","2025-10-12 23:55:32"
94,22,"Amritsar Dump 1","Golden Temple Road, Amritsar",31.634000,74.872300,"2025-10-12 23:55:32","2025-10-12 23:55:32"
95,22,"Amritsar Dump 2","Majitha Road, Amritsar",31.631000,74.874000,"2025-10-12 23:55:32","2025-10-12 23:55:32"
96,23,"Raipur Dump 1","G.E. Road, Raipur",21.251400,81.629600,"2025-10-12 23:55:32","2025-10-12 23:55:32"
97,23,"Raipur Dump 2","P.O. Road, Raipur",21.253000,81.628000,"2025-10-12 23:55:32","2025-10-12 23:55:32"
98,24,"Ranchi Dump 1","Main Road, Ranchi",23.344100,85.309600,"2025-10-12 23:55:32","2025-10-12 23:55:32"
99,24,"Ranchi Dump 2","Kutchery Road, Ranchi",23.346000,85.312000,"2025-10-12 23:55:32","2025-10-12 23:55:32"
100,25,"Dehradun Dump 1","Rajpur Road, Dehradun",30.316500,78.032200,"2025-10-12 23:55:32","2025-10-12 23:55:32"
101,25,"Dehradun Dump 2","Clock Tower, Dehradun",30.318000,78.033000,"2025-10-12 23:55:32","2025-10-12 23:55:32"
102,26,"Guwahati Dump 1","Paltan Bazar, Guwahati",26.144500,91.736200,"2025-10-12 23:55:32","2025-10-12 23:55:32"
103,26,"Guwahati Dump 2","Beltola, Guwahati",26.140000,91.740000,"2025-10-12 23:55:32","2025-10-12 23:55:32"
104,27,"Jodhpur Dump 1","Sojati Gate, Jodhpur",26.238900,73.024300,"2025-10-12 23:55:32","2025-10-12 23:55:32"
105,27,"Jodhpur Dump 2","Ummed Nagar, Jodhpur",26.240000,73.025000,"2025-10-12 23:55:32","2025-10-12 23:55:32"
106,28,"Udaipur Dump 1","Hiran Magri, Udaipur",24.585400,73.712500,"2025-10-12 23:55:32","2025-10-12 23:55:32"
107,28,"Udaipur Dump 2","City Palace, Udaipur",24.576000,73.683000,"2025-10-12 23:55:32","2025-10-12 23:55:32"
108,29,"Mysuru Dump 1","Vijayanagar, Mysore",12.295800,76.639400,"2025-10-12 23:55:32","2025-10-12 23:55:32"
109,29,"Mysuru Dump 2","Chamrajpura, Mysore",12.307000,76.654000,"2025-10-12 23:55:32","2025-10-12 23:55:32"
110,30,"Aurangabad Dump 1","CIDCO, Aurangabad",19.876200,75.343300,"2025-10-12 23:55:32","2025-10-12 23:55:32"
111,30,"Aurangabad Dump 2","Kanchanwadi, Aurangabad",19.879000,75.340000,"2025-10-12 23:55:32","2025-10-12 23:55:32"
112,1,"Chennai Central Dump","Near Marina Beach, Chennai, Tamil Nadu",13.082700,80.270700,"2025-10-13 00:16:51","2025-10-13 00:16:51"
113,2,"Mumbai Deonar Dump","Deonar, Mumbai, Maharashtra",19.080000,72.933600,"2025-10-13 00:16:51","2025-10-13 00:16:51"
114,3,"Delhi Bhalswa Dump","Bhalswa, Delhi",28.705000,77.129000,"2025-10-13 00:16:51","2025-10-13 00:16:51"
115,4,"Kolkata Dhapa Dump","Dhapa, Kolkata, West Bengal",22.565000,88.450000,"2025-10-13 00:16:51","2025-10-13 00:16:51"
116,5,"Bangalore Mavallipura Dump","Mavallipura, Bangalore, Karnataka",13.100000,77.650000,"2025-10-13 00:16:51","2025-10-13 00:16:51"
117,6,"Hyderabad Jawaharnagar Dump","Jawaharnagar, Hyderabad, Telangana",17.480000,78.360000,"2025-10-13 00:16:51","2025-10-13 00:16:51"
118,7,"Pune Uruli Dump","Uruli, Pune, Maharashtra",18.450000,73.900000,"2025-10-13 00:16:51","2025-10-13 00:16:51"
119,8,"Ahmedabad Pirana Dump","Pirana, Ahmedabad, Gujarat",23.040000,72.650000,"2025-10-13 00:16:51","2025-10-13 00:16:51"
120,9,"Jaipur Kekri Dump","Kekri, Jaipur, Rajasthan",26.900000,75.800000,"2025-10-13 00:16:51","2025-10-13 00:16:51"
121,10,"Lucknow Amausi Dump","Amausi, Lucknow, Uttar Pradesh",26.800000,80.900000,"2025-10-13 00:16:51","2025-10-13 00:16:51"
122,11,"Kanpur Kidwai Nagar Dump","Kidwai Nagar, Kanpur, UP",26.450000,80.350000,"2025-10-13 00:16:51","2025-10-13 00:16:51"
123,12,"Nagpur Surgaon Dump","Surgaon, Nagpur, Maharashtra",21.150000,79.100000,"2025-10-13 00:16:51","2025-10-13 00:16:51"
124,13,"Indore Dewas Naka Dump","Dewas Naka, Indore, MP",22.720000,75.870000,"2025-10-13 00:16:51","2025-10-13 00:16:51"
125,14,"Bhopal Kerwa Dump","Kerwa Dam, Bhopal, MP",23.250000,77.430000,"2025-10-13 00:16:51","2025-10-13 00:16:51"
126,15,"Patna Phulwari Dump","Phulwari Sharif, Patna, Bihar",25.580000,85.120000,"2025-10-13 00:16:51","2025-10-13 00:16:51"
127,16,"Surat Khajod Dump","Khajod, Surat, Gujarat",21.220000,72.850000,"2025-10-13 00:16:51","2025-10-13 00:16:51"
128,17,"Vadodara Ajwa Dump","Ajwa, Vadodara, Gujarat",22.330000,73.180000,"2025-10-13 00:16:51","2025-10-13 00:16:51"
129,18,"Thane Wagle Dump","Wagle Estate, Thane, Maharashtra",19.200000,72.970000,"2025-10-13 00:16:51","2025-10-13 00:16:51"
130,19,"Nashik Govindpura Dump","Govindpura, Nashik, Maharashtra",20.000000,73.780000,"2025-10-13 00:16:51","2025-10-13 00:16:51"
131,20,"Gurgaon Sector 52 Dump","Sector 52, Gurgaon, Haryana",28.450000,77.030000,"2025-10-13 00:16:51","2025-10-13 00:16:51"
132,21,"Noida Sector 37 Dump","Sector 37, Noida, UP",28.580000,77.320000,"2025-10-13 00:16:51","2025-10-13 00:16:51"
133,22,"Faridabad Badkhal Dump","Badkhal, Faridabad, Haryana",28.370000,77.320000,"2025-10-13 00:16:51","2025-10-13 00:16:51"
134,23,"Ghaziabad Raj Nagar Dump","Raj Nagar, Ghaziabad, UP",28.670000,77.430000,"2025-10-13 00:16:51","2025-10-13 00:16:51"
135,24,"Agra Idgah Dump","Idgah Colony, Agra, UP",27.180000,78.020000,"2025-10-13 00:16:51","2025-10-13 00:16:51"
136,25,"Varanasi Lahartara Dump","Lahartara, Varanasi, UP",25.320000,82.970000,"2025-10-13 00:16:51","2025-10-13 00:16:51"
137,26,"Amritsar Sultanwind Dump","Sultanwind, Amritsar, Punjab",31.640000,74.870000,"2025-10-13 00:16:51","2025-10-13 00:16:51"
138,27,"Ludhiana BRS Nagar Dump","BRS Nagar, Ludhiana, Punjab",30.920000,75.860000,"2025-10-13 00:16:51","2025-10-13 00:16:51"
139,28,"Jalandhar Dalandran Dump","Dalandran, Jalandhar, Punjab",31.320000,75.580000,"2025-10-13 00:16:51","2025-10-13 00:16:51"
140,29,"Patiala Samana Road Dump","Samana Road, Patiala, Punjab",30.320000,76.400000,"2025-10-13 00:16:51","2025-10-13 00:16:51"
141,30,"Chandigarh Sector 38 Dump","Sector 38, Chandigarh",30.730000,76.780000,"2025-10-13 00:16:51","2025-10-13 00:16:51"
142,31,"Dehradun Raipur Dump","Raipur, Dehradun, Uttarakhand",30.310000,78.030000,"2025-10-13 00:16:51","2025-10-13 00:16:51"
143,32,"Rishikesh Neelkanth Dump","Neelkanth, Rishikesh, Uttarakhand",30.120000,78.320000,"2025-10-13 00:16:51","2025-10-13 00:16:51"
144,33,"Haridwar Jagjeetpur Dump","Jagjeetpur, Haridwar, Uttarakhand",29.945000,78.164000,"2025-10-13 00:16:51","2025-10-13 00:16:51"
145,34,"Shimla Lalpani Dump","Lalpani, Shimla, Himachal Pradesh",31.110000,77.170000,"2025-10-13 00:16:51","2025-10-13 00:16:51"
146,35,"Manali Log Huts Dump","Near Manali Bus Stand, Himachal Pradesh",32.239600,77.188700,"2025-10-13 00:16:51","2025-10-13 00:16:51"
147,36,"Dharamshala Chamunda Dump","Chamunda, Dharamshala, Himachal Pradesh",32.216700,76.320000,"2025-10-13 00:16:51","2025-10-13 00:16:51"
148,37,"Srinagar Nowgam Dump","Nowgam, Srinagar, Jammu & Kashmir",34.080000,74.840000,"2025-10-13 00:16:51","2025-10-13 00:16:51"
149,38,"Jammu Nagrota Dump","Nagrota, Jammu, J&K",32.670000,74.880000,"2025-10-13 00:16:51","2025-10-13 00:16:51"
150,39,"Leh Choglamsar Dump","Choglamsar, Leh, Ladakh",34.155000,77.577000,"2025-10-13 00:16:51","2025-10-13 00:16:51"
151,40,"Kochi Willingdon Dump","Willingdon Island, Kochi, Kerala",9.966700,76.283300,"2025-10-13 00:16:51","2025-10-13 00:16:51"
152,41,"Thiruvananthapuram Peroorkada Dump","Peroorkada, Thiruvananthapuram, Kerala",8.500000,76.950000,"2025-10-13 00:16:51","2025-10-13 00:16:51"
153,42,"Kozhikode West Hill Dump","West Hill, Kozhikode, Kerala",11.250000,75.780000,"2025-10-13 00:16:51","2025-10-13 00:16:51"
154,43,"Mangalore Panambur Dump","Panambur, Mangalore, Karnataka",12.980000,74.810000,"2025-10-13 00:16:51","2025-10-13 00:16:51"
155,44,"Belgaum Naganur Dump","Naganur, Belgaum, Karnataka",15.860000,74.500000,"2025-10-13 00:16:51","2025-10-13 00:16:51"
156,45,"Mysore Hebbal Dump","Hebbal, Mysore, Karnataka",12.310000,76.680000,"2025-10-13 00:16:51","2025-10-13 00:16:51"
157,46,"Hubli Gokul Dump","Gokul, Hubli, Karnataka",15.360000,75.130000,"2025-10-13 00:16:51","2025-10-13 00:16:51"
158,47,"Vijayawada Auto Nagar Dump","Auto Nagar, Vijayawada, Andhra Pradesh",16.520000,80.630000,"2025-10-13 00:16:51","2025-10-13 00:16:51"
159,48,"Visakhapatnam Lankelapalem Dump","Lankelapalem, Visakhapatnam, Andhra Pradesh",17.720000,83.300000,"2025-10-13 00:16:51","2025-10-13 00:16:51"
160,49,"Guntur Bapatla Dump","Bapatla, Guntur, Andhra Pradesh",16.450000,80.500000,"2025-10-13 00:16:51","2025-10-13 00:16:51"
161,50,"Tirupati Alipiri Dump","Alipiri, Tirupati, Andhra Pradesh",13.650000,79.420000,"2025-10-13 00:16:51","2025-10-13 00:16:51"
162,51,"Rajahmundry Dowleswaram Dump","Dowleswaram, Rajahmundry, Andhra Pradesh",16.990000,81.770000,"2025-10-13 00:16:51","2025-10-13 00:16:51"
163,52,"Kakinada Suryaraopeta Dump","Suryaraopeta, Kakinada, Andhra Pradesh",16.960000,82.230000,"2025-10-13 00:16:51","2025-10-13 00:16:51"
164,53,"Patna Sahib Dump","Patna Sahib, Bihar",25.620000,85.120000,"2025-10-13 00:16:51","2025-10-13 00:16:51"
165,54,"Muzaffarpur Motipur Dump","Motipur, Muzaffarpur, Bihar",26.120000,85.360000,"2025-10-13 00:16:51","2025-10-13 00:16:51"
166,55,"Bhagalpur Nathnagar Dump","Nathnagar, Bhagalpur, Bihar",25.250000,87.000000,"2025-10-13 00:16:51","2025-10-13 00:16:51"
167,56,"Gaya Barachatti Dump","Barachatti, Gaya, Bihar",24.760000,85.000000,"2025-10-13 00:16:51","2025-10-13 00:16:51"
168,57,"Darbhanga Laheriasarai Dump","Laheriasarai, Darbhanga, Bihar",26.160000,85.880000,"2025-10-13 00:16:51","2025-10-13 00:16:51"
169,58,"Bhubaneswar Laxmisagar Dump","Laxmisagar, Bhubaneswar, Odisha",20.270000,85.830000,"2025-10-13 00:16:51","2025-10-13 00:16:51"
170,59,"Cuttack Choudwar Dump","Choudwar, Cuttack, Odisha",20.490000,85.860000,"2025-10-13 00:16:51","2025-10-13 00:16:51"
171,60,"Rourkela Koeln Dump","Koeln, Rourkela, Odisha",22.240000,84.880000,"2025-10-13 00:16:51","2025-10-13 00:16:51"
172,61,"Sambalpur Jyoti Vihar Dump","Jyoti Vihar, Sambalpur, Odisha",21.470000,83.970000,"2025-10-13 00:16:51","2025-10-13 00:16:51"
173,62,"Puri Swargadwar Dump","Swargadwar, Puri, Odisha",19.800000,85.830000,"2025-10-13 00:16:51","2025-10-13 00:16:51"
174,63,"Raipur Tatibandh Dump","Tatibandh, Raipur, Chhattisgarh",21.260000,81.630000,"2025-10-13 00:16:51","2025-10-13 00:16:51"
175,64,"Bilaspur Koni Dump","Koni, Bilaspur, Chhattisgarh",22.090000,82.160000,"2025-10-13 00:16:51","2025-10-13 00:16:51"
176,65,"Durg Bhilai Dump","Bhilai, Durg, Chhattisgarh",21.220000,81.350000,"2025-10-13 00:16:51","2025-10-13 00:16:51"
177,66,"Bhilai Sector 6 Dump","Sector 6, Bhilai, Chhattisgarh",21.205000,81.350000,"2025-10-13 00:16:51","2025-10-13 00:16:51"
178,67,"Rajnandgaon Sanjay Nagar Dump","Sanjay Nagar, Rajnandgaon, Chhattisgarh",21.100000,81.030000,"2025-10-13 00:16:51","2025-10-13 00:16:51"
179,68,"Jabalpur Dumna Dump","Dumna Airport Area, Jabalpur, MP",23.180000,79.950000,"2025-10-13 00:16:51","2025-10-13 00:16:51"
180,69,"Gwalior Sithouli Dump","Sithouli, Gwalior, MP",26.260000,78.200000,"2025-10-13 00:16:51","2025-10-13 00:16:51"
181,70,"Ujjain Badnagar Dump","Badnagar, Ujjain, MP",23.180000,75.780000,"2025-10-13 00:16:51","2025-10-13 00:16:51"
182,71,"Satna Ramnagar Dump","Ramnagar, Satna, MP",24.580000,80.820000,"2025-10-13 00:16:51","2025-10-13 00:16:51"
183,72,"Rewa Mandla Road Dump","Mandla Road, Rewa, MP",24.530000,81.300000,"2025-10-13 00:16:51","2025-10-13 00:16:51"
184,73,"Sagar Ganesh Nagar Dump","Ganesh Nagar, Sagar, MP",23.840000,78.740000,"2025-10-13 00:16:51","2025-10-13 00:16:51"
185,74,"Bikaner Kolayat Dump","Kolayat, Bikaner, Rajasthan",28.950000,73.560000,"2025-10-13 00:16:51","2025-10-13 00:16:51"
186,75,"Jodhpur Mandore Dump","Mandore, Jodhpur, Rajasthan",26.290000,73.010000,"2025-10-13 00:16:51","2025-10-13 00:16:51"
187,76,"Udaipur Hiran Magri Dump","Hiran Magri, Udaipur, Rajasthan",24.580000,73.680000,"2025-10-13 00:16:51","2025-10-13 00:16:51"
188,77,"Ajmer Kishangarh Dump","Kishangarh, Ajmer, Rajasthan",26.550000,74.830000,"2025-10-13 00:16:51","2025-10-13 00:16:51"
189,78,"Alwar Ramgarh Dump","Ramgarh, Alwar, Rajasthan",27.560000,76.620000,"2025-10-13 00:16:51","2025-10-13 00:16:51"
190,79,"Kota Sangod Dump","Sangod, Kota, Rajasthan",25.200000,75.830000,"2025-10-13 00:16:51","2025-10-13 00:16:51"
191,80,"Jaipur Mansarovar Dump","Mansarovar, Jaipur, Rajasthan",26.880000,75.780000,"2025-10-13 00:16:51","2025-10-13 00:16:51"
192,81,"Sikar Fatehpur Dump","Fatehpur, Sikar, Rajasthan",27.610000,75.140000,"2025-10-13 00:16:51","2025-10-13 00:16:51"
193,82,"Bhilwara Mandal Dump","Mandal, Bhilwara, Rajasthan",25.350000,74.630000,"2025-10-13 00:16:51","2025-10-13 00:16:51"
194,83,"Jaisalmer Lodurva Dump","Lodurva, Jaisalmer, Rajasthan",26.920000,70.900000,"2025-10-13 00:16:51","2025-10-13 00:16:51"
195,84,"Gangtok Ranipool Dump","Ranipool, Gangtok, Sikkim",27.330000,88.610000,"2025-10-13 00:16:51","2025-10-13 00:16:51"
196,85,"Pelling Pemayangtse Dump","Pemayangtse, Pelling, Sikkim",27.320000,88.270000,"2025-10-13 00:16:51","2025-10-13 00:16:51"
197,86,"Namchi Ravangla Dump","Ravangla, Namchi, Sikkim",27.180000,88.400000,"2025-10-13 00:16:51","2025-10-13 00:16:51"
198,87,"Itanagar Naharlagun Dump","Naharlagun, Itanagar, Arunachal Pradesh",27.100000,93.620000,"2025-10-13 00:16:51","2025-10-13 00:16:51"
199,88,"Tawang Monastery Dump","Monastery area, Tawang, Arunachal Pradesh",27.580000,91.860000,"2025-10-13 00:16:51","2025-10-13 00:16:51"
200,89,"Dispur Khanapara Dump","Khanapara, Dispur, Assam",26.120000,91.720000,"2025-10-13 00:16:51","2025-10-13 00:16:51"
201,90,"Guwahati Basistha Dump","Basistha, Guwahati, Assam",26.090000,91.740000,"2025-10-13 00:16:51","2025-10-13 00:16:51"
202,91,"Jorhat Rowriah Dump","Rowriah, Jorhat, Assam",26.750000,94.210000,"2025-10-13 00:16:51","2025-10-13 00:16:51"
203,92,"Dibrugarh Mohmora Dump","Mohmora, Dibrugarh, Assam",27.480000,95.000000,"2025-10-13 00:16:51","2025-10-13 00:16:51"
204,93,"Silchar Pailapool Dump","Pailapool, Silchar, Assam",24.830000,92.800000,"2025-10-13 00:16:51","2025-10-13 00:16:51"
205,94,"Shillong Police Bazar Dump","Police Bazar, Shillong, Meghalaya",25.570000,91.890000,"2025-10-13 00:16:51","2025-10-13 00:16:51"
206,95,"Mawlynnong Village Dump","Mawlynnong, Meghalaya",25.170000,92.100000,"2025-10-13 00:16:51","2025-10-13 00:16:51"
207,96,"Tura Nalkata Dump","Nalkata, Tura, Meghalaya",25.520000,90.230000,"2025-10-13 00:16:51","2025-10-13 00:16:51"
208,97,"Aizawl Dawrpui Dump","Dawrpui, Aizawl, Mizoram",23.720000,92.720000,"2025-10-13 00:16:51","2025-10-13 00:16:51"
209,98,"Champhai Rihai Dump","Rihai, Champhai, Mizoram",23.270000,93.250000,"2025-10-13 00:16:51","2025-10-13 00:16:51"
210,99,"Kohima New Market Dump","New Market, Kohima, Nagaland",25.670000,94.110000,"2025-10-13 00:16:51","2025-10-13 00:16:51"
211,100,"Dimapur Naga Bazaar Dump","Naga Bazaar, Dimapur, Nagaland",25.920000,93.770000,"2025-10-13 00:16:51","2025-10-13 00:16:51"
212,101,"Imphal Lamphel Dump","Lamphel, Imphal, Manipur",24.810000,93.940000,"2025-10-13 00:16:51","2025-10-13 00:16:51"
213,102,"Ukhrul Maning Dump","Maning, Ukhrul, Manipur",25.110000,94.360000,"2025-10-13 00:16:51","2025-10-13 00:16:51"
214,103,"Bishnupur Moirang Dump","Moirang, Bishnupur, Manipur",24.520000,93.970000,"2025-10-13 00:16:51","2025-10-13 00:16:51"
215,104,"Agartala Khayerpur Dump","Khayerpur, Agartala, Tripura",23.830000,91.280000,"2025-10-13 00:16:51","2025-10-13 00:16:51"
216,105,"Udaipur Tripura Dump","Udaipur, Tripura",23.520000,91.430000,"2025-10-13 00:16:51","2025-10-13 00:16:51"
217,106,"Kohima Village Dump","Village outskirts, Kohima, Nagaland",25.650000,94.120000,"2025-10-13 00:16:51","2025-10-13 00:16:51"
218,107,"Gangtok Deorali Dump","Deorali, Gangtok, Sikkim",27.330000,88.600000,"2025-10-13 00:16:51","2025-10-13 00:16:51"
219,108,"Port Blair Aberdeen Dump","Aberdeen, Port Blair, Andaman & Nicobar",11.666700,92.750000,"2025-10-13 00:16:51","2025-10-13 00:16:51"
220,109,"Puducherry Beach Road Dump","Beach Road, Puducherry",11.930000,79.830000,"2025-10-13 00:16:51","2025-10-13 00:16:51"
221,110,"Daman Nani Daman Dump","Nani Daman, Daman UT",20.417000,72.850000,"2025-10-13 00:16:51","2025-10-13 00:16:51"
222,111,"Diu Diu Fort Dump","Near Diu Fort, Diu UT",20.710000,70.990000,"2025-10-13 00:16:51","2025-10-13 00:16:51"
223,112,"Silvassa Dadra Dump","Dadra Nagar Haveli, Silvassa UT",20.270000,73.010000,"2025-10-13 00:16:51","2025-10-13 00:16:51"
224,113,"Kavaratti Island Dump","Kavaratti, Lakshadweep",10.570000,72.640000,"2025-10-13 00:16:51","2025-10-13 00:16:51"
225,114,"Minicoy Island Dump","Minicoy, Lakshadweep",8.300000,73.050000,"2025-10-13 00:16:51","2025-10-13 00:16:51"
226,115,"Amini Island Dump","Amini Island, Lakshadweep",11.166700,72.666700,"2025-10-13 00:16:51","2025-10-13 00:16:51"
227,116,"Bangaram Island Dump","Bangaram Island, Lakshadweep",10.850000,72.166700,"2025-10-13 00:16:51","2025-10-13 00:16:51"
228,117,"Agatti Island Dump","Agatti Island, Lakshadweep",10.823300,72.177500,"2025-10-13 00:16:51","2025-10-13 00:16:51"
229,118,"Kalpeni Island Dump","Kalpeni, Lakshadweep",10.920000,73.680000,"2025-10-13 00:16:51","2025-10-13 00:16:51"
230,119,"Andheri Central Dump","Andheri, Mumbai",19.120000,72.850000,"2025-10-13 00:16:51","2025-10-13 00:16:51"
231,120,"Bandra West Dump","Bandra, Mumbai",19.060000,72.830000,"2025-10-13 00:16:51","2025-10-13 00:16:51"
232,121,"Juhu Beach Dump","Juhu, Mumbai",19.098000,72.826000,"2025-10-13 00:16:51","2025-10-13 00:16:51"
233,122,"Vashi Navi Mumbai Dump","Vashi, Navi Mumbai",19.077000,73.010000,"2025-10-13 00:16:51","2025-10-13 00:16:51"
234,123,"Panvel Navi Mumbai Dump","Panvel, Navi Mumbai",18.990000,73.120000,"2025-10-13 00:16:51","2025-10-13 00:16:51"
235,124,"Borivali West Dump","Borivali, Mumbai",19.230000,72.860000,"2025-10-13 00:16:51","2025-10-13 00:16:51"
236,125,"Ghatkopar East Dump","Ghatkopar, Mumbai",19.070000,72.900000,"2025-10-13 00:16:51","2025-10-13 00:16:51"
237,126,"Mulund West Dump","Mulund, Mumbai",19.160000,72.950000,"2025-10-13 00:16:51","2025-10-13 00:16:51"
238,127,"Thane West Dump","Thane, Maharashtra",19.220000,72.970000,"2025-10-13 00:16:51","2025-10-13 00:16:51"
239,128,"Thane East Dump","Thane, Maharashtra",19.230000,73.010000,"2025-10-13 00:16:51","2025-10-13 00:16:51"
240,129,"Kalyan Dombivli Dump","Kalyan-Dombivli, Maharashtra",19.240000,73.130000,"2025-10-13 00:16:51","2025-10-13 00:16:51"
241,130,"Ulhasnagar Dump","Ulhasnagar, Maharashtra",19.200000,73.150000,"2025-10-13 00:16:51","2025-10-13 00:16:51"
242,131,"Andheri East Dump","Andheri, Mumbai",19.120000,72.870000,"2025-10-13 00:16:51","2025-10-13 00:16:51"
243,132,"Andheri West Dump","Andheri, Mumbai",19.120000,72.840000,"2025-10-13 00:16:51","2025-10-13 00:16:51"
244,133,"Powai Hiranandani Dump","Powai, Mumbai",19.118600,72.906000,"2025-10-13 00:16:51","2025-10-13 00:16:51"
245,134,"Lower Parel Dump","Lower Parel, Mumbai",18.993000,72.825800,"2025-10-13 00:16:51","2025-10-13 00:16:51"
246,135,"Kurla Dump","Kurla, Mumbai",19.070000,72.880000,"2025-10-13 00:16:51","2025-10-13 00:16:51"
247,136,"Chembur East Dump","Chembur, Mumbai",19.072000,72.900000,"2025-10-13 00:16:51","2025-10-13 00:16:51"
248,137,"Chembur West Dump","Chembur, Mumbai",19.074000,72.890000,"2025-10-13 00:16:51","2025-10-13 00:16:51"
249,138,"Vile Parle Dump","Vile Parle, Mumbai",19.100000,72.840000,"2025-10-13 00:16:51","2025-10-13 00:16:51"
250,139,"Santacruz Dump","Santacruz, Mumbai",19.090000,72.840000,"2025-10-13 00:16:51","2025-10-13 00:16:51"
251,140,"Goregaon Dump","Goregaon, Mumbai",19.170000,72.850000,"2025-10-13 00:16:51","2025-10-13 00:16:51"
252,141,"Malad Dump","Malad, Mumbai",19.190000,72.840000,"2025-10-13 00:16:51","2025-10-13 00:16:51"
253,142,"Bhandup West Dump","Bhandup, Mumbai",19.160000,72.940000,"2025-10-13 00:16:51","2025-10-13 00:16:51"
254,143,"Bhandup East Dump","Bhandup, Mumbai",19.160500,72.950000,"2025-10-13 00:16:51","2025-10-13 00:16:51"
255,144,"Mulund East Dump","Mulund, Mumbai",19.160500,72.955000,"2025-10-13 00:16:51","2025-10-13 00:16:51"
256,145,"Kandivali East Dump","Kandivali, Mumbai",19.230000,72.850000,"2025-10-13 00:16:51","2025-10-13 00:16:51"
257,146,"Kandivali West Dump","Kandivali, Mumbai",19.230000,72.840000,"2025-10-13 00:16:51","2025-10-13 00:16:51"
258,147,"Seawoods Navi Mumbai Dump","Seawoods, Navi Mumbai",19.035000,73.015000,"2025-10-13 00:16:51","2025-10-13 00:16:51"
259,148,"Belapur Navi Mumbai Dump","Belapur, Navi Mumbai",19.030000,73.030000,"2025-10-13 00:16:51","2025-10-13 00:16:51"
260,149,"Panvel East Dump","Panvel, Navi Mumbai",18.990000,73.120000,"2025-10-13 00:16:51","2025-10-13 00:16:51"
261,150,"Panvel West Dump","Panvel, Navi Mumbai",18.990500,73.125000,"2025-10-13 00:16:51","2025-10-13 00:16:51"
262,151,"Kharghar Navi Mumbai Dump","Kharghar, Navi Mumbai",19.050000,73.030000,"2025-10-13 00:16:51","2025-10-13 00:16:51"
263,152,"Turbhe Navi Mumbai Dump","Turbhe, Navi Mumbai",19.010000,73.010000,"2025-10-13 00:16:51","2025-10-13 00:16:51"
264,153,"Airoli Navi Mumbai Dump","Airoli, Navi Mumbai",19.140000,73.030000,"2025-10-13 00:16:51","2025-10-13 00:16:51"
265,154,"Ghansoli Navi Mumbai Dump","Ghansoli, Navi Mumbai",19.130000,73.020000,"2025-10-13 00:16:51","2025-10-13 00:16:51"
266,155,"Mankhurd Dump","Mankhurd, Mumbai",19.060000,72.910000,"2025-10-13 00:16:51","2025-10-13 00:16:51"
267,156,"Chembur South Dump","Chembur, Mumbai",19.071000,72.899000,"2025-10-13 00:16:51","2025-10-13 00:16:51"
268,157,"Ghatkopar West Dump","Ghatkopar, Mumbai",19.070000,72.895000,"2025-10-13 00:16:51","2025-10-13 00:16:51"
269,158,"Vikhroli Dump","Vikhroli, Mumbai",19.090000,72.940000,"2025-10-13 00:16:51","2025-10-13 00:16:51"
270,159,"Kanjurmarg Dump","Kanjurmarg, Mumbai",19.130000,72.920000,"2025-10-13 00:16:51","2025-10-13 00:16:51"
271,160,"Bhandup North Dump","Bhandup, Mumbai",19.160000,72.945000,"2025-10-13 00:16:51","2025-10-13 00:16:51"
272,161,"Mulund North Dump","Mulund, Mumbai",19.165000,72.950000,"2025-10-13 00:16:51","2025-10-13 00:16:51"
273,162,"Mulund South Dump","Mulund, Mumbai",19.160000,72.960000,"2025-10-13 00:16:51","2025-10-13 00:16:51"
274,163,"Kurla West Dump","Kurla, Mumbai",19.065000,72.880000,"2025-10-13 00:16:51","2025-10-13 00:16:51"
275,164,"Kurla East Dump","Kurla, Mumbai",19.070000,72.885000,"2025-10-13 00:16:51","2025-10-13 00:16:51"
276,1,"Sector 1 Dump Yard","Main Road, Greenfield",28.613900,77.209000,"2025-10-13 15:07:27","2025-10-13 15:07:27"
277,2,"Sector 2 Landfill Site","Near City Market",28.614200,77.210100,"2025-10-13 15:07:27","2025-10-13 15:07:27"
278,3,"Old Town Dump","Ward 3, North Zone",28.615000,77.211200,"2025-10-13 15:07:27","2025-10-13 15:07:27"
279,4,"Riverside Waste Point","By the river canal, South End",28.616100,77.212300,"2025-10-13 15:07:27","2025-10-13 15:07:27"
280,5,"Hill View Yard","Opposite Eco Park",28.617200,77.213400,"2025-10-13 15:07:27","2025-10-13 15:07:27"
281,6,"Industrial Dump A","Phase 1 Industrial Area",28.618300,77.214500,"2025-10-13 15:07:27","2025-10-13 15:07:27"
282,7,"Industrial Dump B","Phase 2 Industrial Area",28.619400,77.215600,"2025-10-13 15:07:27","2025-10-13 15:07:27"
283,8,"Central Waste Yard","Downtown, near metro",28.620500,77.216700,"2025-10-13 15:07:27","2025-10-13 15:07:27"
284,9,"West End Landfill","Sector 9, West Zone",28.621600,77.217800,"2025-10-13 15:07:27","2025-10-13 15:07:27"
285,10,"East Side Dump","Near Sunrise Colony",28.622700,77.218900,"2025-10-13 15:07:27","2025-10-13 15:07:27"
286,11,"North Ridge Yard","Behind Water Tank, Zone N",28.623800,77.220000,"2025-10-13 15:07:27","2025-10-13 15:07:27"
287,12,"South Valley Dump","Near South Park Avenue",28.624900,77.221100,"2025-10-13 15:07:27","2025-10-13 15:07:27"
288,13,"Lakeview Waste Site","By the Lakeview Road",28.625100,77.222200,"2025-10-13 15:07:27","2025-10-13 15:07:27"
289,14,"Market Yard Dump","Near Central Market",28.626200,77.223300,"2025-10-13 15:07:27","2025-10-13 15:07:27"
290,15,"Tech Park Dump Point","IT Corridor, Tower B",28.627300,77.224400,"2025-10-13 15:07:27","2025-10-13 15:07:27"
291,16,"Residential Waste Yard","Phase 1 Apartments Zone",28.628400,77.225500,"2025-10-13 15:07:27","2025-10-13 15:07:27"
292,17,"Public Dump Zone A","Opposite Railway Station",28.629500,77.226600,"2025-10-13 15:07:27","2025-10-13 15:07:27"
293,18,"Public Dump Zone B","City Bus Stand Area",28.630600,77.227700,"2025-10-13 15:07:27","2025-10-13 15:07:27"
294,19,"Old City Dump","Ward 8, Heritage Road",28.631700,77.228800,"2025-10-13 15:07:27","2025-10-13 15:07:27"
295,20,"Green Park Waste Site","Near Garden Colony",28.632800,77.229900,"2025-10-13 15:07:27","2025-10-13 15:07:27"
296,21,"Sector 21 Yard","Adjacent to Metro Gate 3",28.633900,77.231000,"2025-10-13 15:07:27","2025-10-13 15:07:27"
297,22,"Sector 22 Landfill","Block C, Zone 2",28.635000,77.232100,"2025-10-13 15:07:27","2025-10-13 15:07:27"
298,23,"Sector 23 Dump","Opposite Petrol Pump",28.636100,77.233200,"2025-10-13 15:07:27","2025-10-13 15:07:27"
299,24,"Sector 24 Yard","Behind Shopping Complex",28.637200,77.234300,"2025-10-13 15:07:27","2025-10-13 15:07:27"
300,25,"Sector 25 Waste Point","Near Hospital Road",28.638300,77.235400,"2025-10-13 15:07:27","2025-10-13 15:07:27"
301,26,"Sector 26 Landfill","East Industrial Belt",28.639400,77.236500,"2025-10-13 15:07:27","2025-10-13 15:07:27"
302,27,"Sector 27 Dump Site","South Industrial Belt",28.640500,77.237600,"2025-10-13 15:07:27","2025-10-13 15:07:27"
303,28,"Sector 28 Yard","Residential Block A",28.641600,77.238700,"2025-10-13 15:07:27","2025-10-13 15:07:27"
304,29,"Sector 29 Yard","Residential Block B",28.642700,77.239800,"2025-10-13 15:07:27","2025-10-13 15:07:27"
305,30,"Sector 30 Dump","North Industrial Gate",28.643800,77.240900,"2025-10-13 15:07:27","2025-10-13 15:07:27"
306,31,"Sector 31 Waste Yard","Near Mall Complex",28.644900,77.242000,"2025-10-13 15:07:27","2025-10-13 15:07:27"
307,32,"Sector 32 Dump","Opposite School Lane",28.646000,77.243100,"2025-10-13 15:07:27","2025-10-13 15:07:27"
308,33,"Sector 33 Dump","Next to Sports Ground",28.647100,77.244200,"2025-10-13 15:07:27","2025-10-13 15:07:27"
309,34,"Sector 34 Waste Point","Beside Old Bridge",28.648200,77.245300,"2025-10-13 15:07:27","2025-10-13 15:07:27"
310,35,"Sector 35 Dump Yard","East City Highway",28.649300,77.246400,"2025-10-13 15:07:27","2025-10-13 15:07:27"
311,36,"Sector 36 Landfill","Near City Border",28.650400,77.247500,"2025-10-13 15:07:27","2025-10-13 15:07:27"
312,37,"Sector 37 Waste Yard","Behind Gas Agency",28.651500,77.248600,"2025-10-13 15:07:27","2025-10-13 15:07:27"
313,38,"Sector 38 Dump","Central School Road",28.652600,77.249700,"2025-10-13 15:07:27","2025-10-13 15:07:27"
314,39,"Sector 39 Yard","Adjacent to Fire Station",28.653700,77.250800,"2025-10-13 15:07:27","2025-10-13 15:07:27"
315,40,"Sector 40 Dump","By Highway Gate 4",28.654800,77.251900,"2025-10-13 15:07:27","2025-10-13 15:07:27"
316,41,"Sector 41 Landfill","New Development Zone",28.655900,77.253000,"2025-10-13 15:07:27","2025-10-13 15:07:27"
317,42,"Sector 42 Dump","Urban Housing Area",28.657000,77.254100,"2025-10-13 15:07:27","2025-10-13 15:07:27"
318,43,"Sector 43 Yard","Central Ring Road",28.658100,77.255200,"2025-10-13 15:07:27","2025-10-13 15:07:27"
319,44,"Sector 44 Dump","South Hill Colony",28.659200,77.256300,"2025-10-13 15:07:27","2025-10-13 15:07:27"
320,45,"Sector 45 Waste Yard","Near Bus Depot",28.660300,77.257400,"2025-10-13 15:07:27","2025-10-13 15:07:27"
321,46,"Sector 46 Yard","East Zone",28.661400,77.258500,"2025-10-13 15:07:27","2025-10-13 15:07:27"
322,47,"Sector 47 Dump","North Zone",28.662500,77.259600,"2025-10-13 15:07:27","2025-10-13 15:07:27"
323,48,"Sector 48 Waste Yard","Residential Cluster",28.663600,77.260700,"2025-10-13 15:07:27","2025-10-13 15:07:27"
324,49,"Sector 49 Dump","Old Railway Colony",28.664700,77.261800,"2025-10-13 15:07:27","2025-10-13 15:07:27"
325,50,"Sector 50 Landfill","Near Electric Substation",28.665800,77.262900,"2025-10-13 15:07:27","2025-10-13 15:07:27"
326,51,"Sector 51 Dump","Zone E - City Center",28.666900,77.264000,"2025-10-13 15:07:27","2025-10-13 15:07:27"
327,52,"Sector 52 Dump","Ward 12 East Area",28.668000,77.265100,"2025-10-13 15:07:27","2025-10-13 15:07:27"
328,53,"Sector 53 Dump","Zone 9 Market Area",28.669100,77.266200,"2025-10-13 15:07:27","2025-10-13 15:07:27"
329,54,"Sector 54 Yard","Near Water Treatment",28.670200,77.267300,"2025-10-13 15:07:27","2025-10-13 15:07:27"
330,55,"Sector 55 Dump","South Highway End",28.671300,77.268400,"2025-10-13 15:07:27","2025-10-13 15:07:27"
331,56,"Sector 56 Landfill","North Hill Base",28.672400,77.269500,"2025-10-13 15:07:27","2025-10-13 15:07:27"
332,57,"Sector 57 Dump","Near Govt. Office",28.673500,77.270600,"2025-10-13 15:07:27","2025-10-13 15:07:27"
333,58,"Sector 58 Waste Point","Old Market Crossroad",28.674600,77.271700,"2025-10-13 15:07:27","2025-10-13 15:07:27"
334,59,"Sector 59 Dump","New City Gate 7",28.675700,77.272800,"2025-10-13 15:07:27","2025-10-13 15:07:27"
335,60,"Sector 60 Dump Yard","By Metro Station 5",28.676800,77.273900,"2025-10-13 15:07:27","2025-10-13 15:07:27"
336,61,"Sector 61 Landfill","Near Medical College",28.677900,77.275000,"2025-10-13 15:07:27","2025-10-13 15:07:27"
337,62,"Sector 62 Yard","South-East Road",28.679000,77.276100,"2025-10-13 15:07:27","2025-10-13 15:07:27"
338,63,"Sector 63 Dump","Opp. Fire Office",28.680100,77.277200,"2025-10-13 15:07:27","2025-10-13 15:07:27"
339,64,"Sector 64 Waste Yard","Zone D Industrial",28.681200,77.278300,"2025-10-13 15:07:27","2025-10-13 15:07:27"
340,65,"Sector 65 Dump","Old Town Entry",28.682300,77.279400,"2025-10-13 15:07:27","2025-10-13 15:07:27"
341,66,"Sector 66 Dump Yard","Hill View Road",28.683400,77.280500,"2025-10-13 15:07:27","2025-10-13 15:07:27"
342,67,"Sector 67 Landfill","North Industrial Park",28.684500,77.281600,"2025-10-13 15:07:27","2025-10-13 15:07:27"
343,68,"Sector 68 Dump","Adjacent to Mall",28.685600,77.282700,"2025-10-13 15:07:27","2025-10-13 15:07:27"
344,69,"Sector 69 Yard","Residential Zone F",28.686700,77.283800,"2025-10-13 15:07:27","2025-10-13 15:07:27"
345,70,"Sector 70 Dump","Central Admin Block",28.687800,77.284900,"2025-10-13 15:07:27","2025-10-13 15:07:27"
346,71,"Sector 71 Dump","North-East Colony",28.688900,77.286000,"2025-10-13 15:07:27","2025-10-13 15:07:27"
347,72,"Sector 72 Landfill","East Outer Ring",28.690000,77.287100,"2025-10-13 15:07:27","2025-10-13 15:07:27"
348,73,"Sector 73 Yard","South Industrial Lane",28.691100,77.288200,"2025-10-13 15:07:27","2025-10-13 15:07:27"
349,74,"Sector 74 Dump","Old Fort Road",28.692200,77.289300,"2025-10-13 15:07:27","2025-10-13 15:07:27"
350,75,"Sector 75 Dump","Zone J Area",28.693300,77.290400,"2025-10-13 15:07:27","2025-10-13 15:07:27"
351,76,"Sector 76 Waste Yard","Central City West",28.694400,77.291500,"2025-10-13 15:07:27","2025-10-13 15:07:27"
352,77,"Sector 77 Dump","Behind Power House",28.695500,77.292600,"2025-10-13 15:07:27","2025-10-13 15:07:27"
353,78,"Sector 78 Yard","South Green Valley",28.696600,77.293700,"2025-10-13 15:07:27","2025-10-13 15:07:27"
354,79,"Sector 79 Dump","North Green Valley",28.697700,77.294800,"2025-10-13 15:07:27","2025-10-13 15:07:27"
355,80,"Sector 80 Dump","Opposite Stadium",28.698800,77.295900,"2025-10-13 15:07:27","2025-10-13 15:07:27"
356,1,"Sector 1 Dump Yard","Main Road, Greenfield",28.613900,77.209000,"2025-10-13 15:08:53","2025-10-13 15:08:53"
357,2,"Sector 2 Landfill Site","Near City Market",28.614200,77.210100,"2025-10-13 15:08:53","2025-10-13 15:08:53"
358,3,"Sector 3 Dump","Ward 3, North Zone",28.615000,77.211200,"2025-10-13 15:08:53","2025-10-13 15:08:53"
359,4,"Riverside Waste Point","By the river canal, South End",28.616100,77.212300,"2025-10-13 15:08:53","2025-10-13 15:08:53"
360,5,"Hill View Yard","Opposite Eco Park",28.617200,77.213400,"2025-10-13 15:08:53","2025-10-13 15:08:53"
361,6,"Industrial Dump A","Phase 1 Industrial Area",28.618300,77.214500,"2025-10-13 15:08:53","2025-10-13 15:08:53"
362,7,"Industrial Dump B","Phase 2 Industrial Area",28.619400,77.215600,"2025-10-13 15:08:53","2025-10-13 15:08:53"
363,8,"Central Waste Yard","Downtown, near metro",28.620500,77.216700,"2025-10-13 15:08:53","2025-10-13 15:08:53"
364,9,"West End Landfill","Sector 9, West Zone",28.621600,77.217800,"2025-10-13 15:08:53","2025-10-13 15:08:53"
365,10,"East Side Dump","Near Sunrise Colony",28.622700,77.218900,"2025-10-13 15:08:53","2025-10-13 15:08:53"
366,11,"North Ridge Yard","Behind Water Tank, Zone N",28.623800,77.220000,"2025-10-13 15:08:53","2025-10-13 15:08:53"
367,12,"South Valley Dump","Near South Park Avenue",28.624900,77.221100,"2025-10-13 15:08:53","2025-10-13 15:08:53"
368,13,"Lakeview Waste Site","By the Lakeview Road",28.625100,77.222200,"2025-10-13 15:08:53","2025-10-13 15:08:53"
369,14,"Market Yard Dump","Near Central Market",28.626200,77.223300,"2025-10-13 15:08:53","2025-10-13 15:08:53"
370,15,"Tech Park Dump Point","IT Corridor, Tower B",28.627300,77.224400,"2025-10-13 15:08:53","2025-10-13 15:08:53"
371,16,"Residential Waste Yard","Phase 1 Apartments Zone",28.628400,77.225500,"2025-10-13 15:08:53","2025-10-13 15:08:53"
372,17,"Public Dump Zone A","Opposite Railway Station",28.629500,77.226600,"2025-10-13 15:08:53","2025-10-13 15:08:53"
373,18,"Public Dump Zone B","City Bus Stand Area",28.630600,77.227700,"2025-10-13 15:08:53","2025-10-13 15:08:53"
374,19,"Old City Dump","Ward 8, Heritage Road",28.631700,77.228800,"2025-10-13 15:08:53","2025-10-13 15:08:53"
375,20,"Green Park Waste Site","Near Garden Colony",28.632800,77.229900,"2025-10-13 15:08:53","2025-10-13 15:08:53"
376,21,"Sector 21 Yard","Adjacent to Metro Gate 3",28.633900,77.231000,"2025-10-13 15:08:53","2025-10-13 15:08:53"
377,22,"Sector 22 Landfill","Block C, Zone 2",28.635000,77.232100,"2025-10-13 15:08:53","2025-10-13 15:08:53"
378,23,"Sector 23 Dump","Opposite Petrol Pump",28.636100,77.233200,"2025-10-13 15:08:53","2025-10-13 15:08:53"
379,24,"Sector 24 Yard","Behind Shopping Complex",28.637200,77.234300,"2025-10-13 15:08:53","2025-10-13 15:08:53"
380,25,"Sector 25 Waste Point","Near Hospital Road",28.638300,77.235400,"2025-10-13 15:08:53","2025-10-13 15:08:53"
381,26,"Sector 26 Landfill","East Industrial Belt",28.639400,77.236500,"2025-10-13 15:08:53","2025-10-13 15:08:53"
382,27,"Sector 27 Dump Site","South Industrial Belt",28.640500,77.237600,"2025-10-13 15:08:53","2025-10-13 15:08:53"
383,28,"Sector 28 Yard","Residential Block A",28.641600,77.238700,"2025-10-13 15:08:53","2025-10-13 15:08:53"
384,29,"Sector 29 Yard","Residential Block B",28.642700,77.239800,"2025-10-13 15:08:53","2025-10-13 15:08:53"
385,30,"Sector 30 Dump","North Industrial Gate",28.643800,77.240900,"2025-10-13 15:08:53","2025-10-13 15:08:53"
386,31,"Sector 31 Waste Yard","Near Mall Complex",28.644900,77.242000,"2025-10-13 15:08:53","2025-10-13 15:08:53"
387,32,"Sector 32 Dump","Opposite School Lane",28.646000,77.243100,"2025-10-13 15:08:53","2025-10-13 15:08:53"
388,33,"Sector 33 Dump","Next to Sports Ground",28.647100,77.244200,"2025-10-13 15:08:53","2025-10-13 15:08:53"
389,34,"Sector 34 Waste Point","Beside Old Bridge",28.648200,77.245300,"2025-10-13 15:08:53","2025-10-13 15:08:53"
390,35,"Sector 35 Dump Yard","East City Highway",28.649300,77.246400,"2025-10-13 15:08:53","2025-10-13 15:08:53"
391,36,"Sector 36 Landfill","Near City Border",28.650400,77.247500,"2025-10-13 15:08:53","2025-10-13 15:08:53"
392,37,"Sector 37 Waste Yard","Behind Gas Agency",28.651500,77.248600,"2025-10-13 15:08:53","2025-10-13 15:08:53"
393,38,"Sector 38 Dump","Central School Road",28.652600,77.249700,"2025-10-13 15:08:53","2025-10-13 15:08:53"
394,39,"Sector 39 Yard","Adjacent to Fire Station",28.653700,77.250800,"2025-10-13 15:08:53","2025-10-13 15:08:53"
395,40,"Sector 40 Dump","By Highway Gate 4",28.654800,77.251900,"2025-10-13 15:08:53","2025-10-13 15:08:53"
396,41,"Sector 41 Landfill","New Development Zone",28.655900,77.253000,"2025-10-13 15:08:53","2025-10-13 15:08:53"
397,42,"Sector 42 Dump","Urban Housing Area",28.657000,77.254100,"2025-10-13 15:08:53","2025-10-13 15:08:53"
398,43,"Sector 43 Yard","Central Ring Road",28.658100,77.255200,"2025-10-13 15:08:53","2025-10-13 15:08:53"
399,44,"Sector 44 Dump","South Hill Colony",28.659200,77.256300,"2025-10-13 15:08:53","2025-10-13 15:08:53"
400,45,"Sector 45 Waste Yard","Near Bus Depot",28.660300,77.257400,"2025-10-13 15:08:53","2025-10-13 15:08:53"
401,46,"Sector 46 Yard","East Zone",28.661400,77.258500,"2025-10-13 15:08:53","2025-10-13 15:08:53"
402,47,"Sector 47 Dump","North Zone",28.662500,77.259600,"2025-10-13 15:08:53","2025-10-13 15:08:53"
403,48,"Sector 48 Waste Yard","Residential Cluster",28.663600,77.260700,"2025-10-13 15:08:53","2025-10-13 15:08:53"
404,49,"Sector 49 Dump","Old Railway Colony",28.664700,77.261800,"2025-10-13 15:08:53","2025-10-13 15:08:53"
405,50,"Sector 50 Landfill","Near Electric Substation",28.665800,77.262900,"2025-10-13 15:08:53","2025-10-13 15:08:53"
406,51,"Sector 51 Dump","Zone E - City Center",28.666900,77.264000,"2025-10-13 15:08:53","2025-10-13 15:08:53"
407,52,"Sector 52 Dump","Ward 12 East Area",28.668000,77.265100,"2025-10-13 15:08:53","2025-10-13 15:08:53"
408,53,"Sector 53 Dump","Zone 9 Market Area",28.669100,77.266200,"2025-10-13 15:08:53","2025-10-13 15:08:53"
409,54,"Sector 54 Yard","Near Water Treatment",28.670200,77.267300,"2025-10-13 15:08:53","2025-10-13 15:08:53"
410,55,"Sector 55 Dump","South Highway End",28.671300,77.268400,"2025-10-13 15:08:53","2025-10-13 15:08:53"
411,56,"Sector 56 Landfill","North Hill Base",28.672400,77.269500,"2025-10-13 15:08:53","2025-10-13 15:08:53"
412,57,"Sector 57 Dump","Near Govt. Office",28.673500,77.270600,"2025-10-13 15:08:53","2025-10-13 15:08:53"
413,58,"Sector 58 Waste Point","Old Market Crossroad",28.674600,77.271700,"2025-10-13 15:08:53","2025-10-13 15:08:53"
414,59,"Sector 59 Dump","New City Gate 7",28.675700,77.272800,"2025-10-13 15:08:53","2025-10-13 15:08:53"
415,60,"Sector 60 Dump Yard","By Metro Station 5",28.676800,77.273900,"2025-10-13 15:08:53","2025-10-13 15:08:53"
416,61,"Sector 61 Landfill","Near Medical College",28.677900,77.275000,"2025-10-13 15:08:53","2025-10-13 15:08:53"
417,62,"Sector 62 Yard","South-East Road",28.679000,77.276100,"2025-10-13 15:08:53","2025-10-13 15:08:53"
418,63,"Sector 63 Dump","Opp. Fire Office",28.680100,77.277200,"2025-10-13 15:08:53","2025-10-13 15:08:53"
419,64,"Sector 64 Waste Yard","Zone D Industrial",28.681200,77.278300,"2025-10-13 15:08:53","2025-10-13 15:08:53"
420,65,"Sector 65 Dump","Old Town Entry",28.682300,77.279400,"2025-10-13 15:08:53","2025-10-13 15:08:53"
421,66,"Sector 66 Dump Yard","Hill View Road",28.683400,77.280500,"2025-10-13 15:08:53","2025-10-13 15:08:53"
422,67,"Sector 67 Landfill","North Industrial Park",28.684500,77.281600,"2025-10-13 15:08:53","2025-10-13 15:08:53"
423,68,"Sector 68 Dump","Adjacent to Mall",28.685600,77.282700,"2025-10-13 15:08:53","2025-10-13 15:08:53"
424,69,"Sector 69 Yard","Residential Zone F",28.686700,77.283800,"2025-10-13 15:08:53","2025-10-13 15:08:53"
425,70,"Sector 70 Dump","Central Admin Block",28.687800,77.284900,"2025-10-13 15:08:53","2025-10-13 15:08:53"
426,71,"Sector 71 Dump","North-East Colony",28.688900,77.286000,"2025-10-13 15:08:53","2025-10-13 15:08:53"
427,72,"Sector 72 Landfill","East Outer Ring",28.690000,77.287100,"2025-10-13 15:08:53","2025-10-13 15:08:53"
428,73,"Sector 73 Yard","South Industrial Lane",28.691100,77.288200,"2025-10-13 15:08:53","2025-10-13 15:08:53"
429,74,"Sector 74 Dump","Old Fort Road",28.692200,77.289300,"2025-10-13 15:08:53","2025-10-13 15:08:53"
430,75,"Sector 75 Dump","Zone J Area",28.693300,77.290400,"2025-10-13 15:08:53","2025-10-13 15:08:53"
431,76,"Sector 76 Waste Yard","Central City West",28.694400,77.291500,"2025-10-13 15:08:53","2025-10-13 15:08:53"
432,77,"Sector 77 Dump","Behind Power House",28.695500,77.292600,"2025-10-13 15:08:53","2025-10-13 15:08:53"
433,78,"Sector 78 Yard","South Green Valley",28.696600,77.293700,"2025-10-13 15:08:53","2025-10-13 15:08:53"
434,79,"Sector 79 Dump","North Green Valley",28.697700,77.294800,"2025-10-13 15:08:53","2025-10-13 15:08:53"
435,80,"Sector 80 Dump","Opposite Stadium",28.698800,77.295900,"2025-10-13 15:08:53","2025-10-13 15:08:53"
436,81,"Sector 81 Dump","Central Block",28.699900,77.297000,"2025-10-13 15:08:53","2025-10-13 15:08:53"
437,82,"Sector 82 Dump","East Corner",28.701000,77.298100,"2025-10-13 15:08:53","2025-10-13 15:08:53"
438,83,"Sector 83 Yard","West Colony",28.702100,77.299200,"2025-10-13 15:08:53","2025-10-13 15:08:53"
439,84,"Sector 84 Dump","North Point",28.703200,77.300300,"2025-10-13 15:08:53","2025-10-13 15:08:53"
440,85,"Sector 85 Dump","South Point",28.704300,77.301400,"2025-10-13 15:08:53","2025-10-13 15:08:53"
441,86,"Sector 86 Yard","Near School Zone",28.705400,77.302500,"2025-10-13 15:08:53","2025-10-13 15:08:53"
442,87,"Sector 87 Dump","Tech Hub Area",28.706500,77.303600,"2025-10-13 15:08:53","2025-10-13 15:08:53"
443,88,"Sector 88 Dump","Green Park Phase 2",28.707600,77.304700,"2025-10-13 15:08:53","2025-10-13 15:08:53"
444,89,"Sector 89 Yard","Industrial Lane 5",28.708700,77.305800,"2025-10-13 15:08:53","2025-10-13 15:08:53"
445,90,"Sector 90 Dump","Residential Ring",28.709800,77.306900,"2025-10-13 15:08:53","2025-10-13 15:08:53"
446,91,"Sector 91 Dump","Main Road Cross",28.710900,77.308000,"2025-10-13 15:08:53","2025-10-13 15:08:53"
447,92,"Sector 92 Yard","City Junction",28.712000,77.309100,"2025-10-13 15:08:53","2025-10-13 15:08:53"
448,93,"Sector 93 Dump","Metro Exit 4",28.713100,77.310200,"2025-10-13 15:08:53","2025-10-13 15:08:53"
449,94,"Sector 94 Dump","Riverside Colony",28.714200,77.311300,"2025-10-13 15:08:53","2025-10-13 15:08:53"
450,95,"Sector 95 Yard","New Township",28.715300,77.312400,"2025-10-13 15:08:53","2025-10-13 15:08:53"
451,96,"Sector 96 Dump","Eco Block",28.716400,77.313500,"2025-10-13 15:08:53","2025-10-13 15:08:53"
452,97,"Sector 97 Dump","City Outskirts",28.717500,77.314600,"2025-10-13 15:08:53","2025-10-13 15:08:53"
453,98,"Sector 98 Yard","South West Belt",28.718600,77.315700,"2025-10-13 15:08:53","2025-10-13 15:08:53"
454,99,"Sector 99 Dump","North West Belt",28.719700,77.316800,"2025-10-13 15:08:53","2025-10-13 15:08:53"
455,100,"Sector 100 Dump","Edge Hill Site",28.720800,77.317900,"2025-10-13 15:08:53","2025-10-13 15:08:53"
456,101,"Sector 101 Dump","Block 101 Central",28.721900,77.319000,"2025-10-13 15:08:53","2025-10-13 15:08:53"
457,102,"Sector 102 Dump","East Industrial",28.723000,77.320100,"2025-10-13 15:08:53","2025-10-13 15:08:53"
458,103,"Sector 103 Yard","West Industrial",28.724100,77.321200,"2025-10-13 15:08:53","2025-10-13 15:08:53"
459,104,"Sector 104 Dump","Residential Core",28.725200,77.322300,"2025-10-13 15:08:53","2025-10-13 15:08:53"
460,105,"Sector 105 Dump","Outer Bypass",28.726300,77.323400,"2025-10-13 15:08:53","2025-10-13 15:08:53"
461,106,"Sector 106 Yard","Highway Gate 5",28.727400,77.324500,"2025-10-13 15:08:53","2025-10-13 15:08:53"
462,107,"Sector 107 Dump","Mall Plaza",28.728500,77.325600,"2025-10-13 15:08:53","2025-10-13 15:08:53"
463,108,"Sector 108 Dump","Railway Yard Road",28.729600,77.326700,"2025-10-13 15:08:53","2025-10-13 15:08:53"
464,109,"Sector 109 Yard","Fire Station Zone",28.730700,77.327800,"2025-10-13 15:08:53","2025-10-13 15:08:53"
465,110,"Sector 110 Dump","Bus Depot East",28.731800,77.328900,"2025-10-13 15:08:53","2025-10-13 15:08:53"
466,111,"Sector 111 Dump","Tech Zone A",28.732900,77.330000,"2025-10-13 15:08:53","2025-10-13 15:08:53"
467,112,"Sector 112 Yard","Tech Zone B",28.734000,77.331100,"2025-10-13 15:08:53","2025-10-13 15:08:53"
468,113,"Sector 113 Dump","Residential Zone H",28.735100,77.332200,"2025-10-13 15:08:53","2025-10-13 15:08:53"
469,114,"Sector 114 Dump","Industrial Area F",28.736200,77.333300,"2025-10-13 15:08:53","2025-10-13 15:08:53"
470,115,"Sector 115 Yard","Eco Colony",28.737300,77.334400,"2025-10-13 15:08:53","2025-10-13 15:08:53"
471,116,"Sector 116 Dump","New Market",28.738400,77.335500,"2025-10-13 15:08:53","2025-10-13 15:08:53"
472,117,"Sector 117 Dump","North Plaza",28.739500,77.336600,"2025-10-13 15:08:53","2025-10-13 15:08:53"
473,118,"Sector 118 Yard","West Plaza",28.740600,77.337700,"2025-10-13 15:08:53","2025-10-13 15:08:53"
474,119,"Sector 119 Dump","South Plaza",28.741700,77.338800,"2025-10-13 15:08:53","2025-10-13 15:08:53"
475,120,"Sector 120 Dump","East Plaza",28.742800,77.339900,"2025-10-13 15:08:53","2025-10-13 15:08:53"
476,121,"Sector 121 Yard","Bypass Corner",28.743900,77.341000,"2025-10-13 15:08:53","2025-10-13 15:08:53"
477,122,"Sector 122 Dump","Green Enclave",28.745000,77.342100,"2025-10-13 15:08:53","2025-10-13 15:08:53"
478,123,"Sector 123 Dump","Industrial Hub",28.746100,77.343200,"2025-10-13 15:08:53","2025-10-13 15:08:53"
479,124,"Sector 124 Yard","Market Circle",28.747200,77.344300,"2025-10-13 15:08:53","2025-10-13 15:08:53"
480,125,"Sector 125 Dump","Old Town Sector",28.748300,77.345400,"2025-10-13 15:08:53","2025-10-13 15:08:53"
481,126,"Sector 126 Dump","Eco Town Entry",28.749400,77.346500,"2025-10-13 15:08:53","2025-10-13 15:08:53"
482,127,"Sector 127 Yard","North Square",28.750500,77.347600,"2025-10-13 15:08:53","2025-10-13 15:08:53"
483,128,"Sector 128 Dump","South Square",28.751600,77.348700,"2025-10-13 15:08:53","2025-10-13 15:08:53"
484,129,"Sector 129 Dump","New Hill Zone",28.752700,77.349800,"2025-10-13 15:08:53","2025-10-13 15:08:53"
485,130,"Sector 130 Yard","Riverside Edge",28.753800,77.350900,"2025-10-13 15:08:53","2025-10-13 15:08:53"
486,131,"Sector 131 Dump","Central Avenue",28.754900,77.352000,"2025-10-13 15:08:53","2025-10-13 15:08:53"
487,132,"Sector 132 Dump","Hilltop Area",28.756000,77.353100,"2025-10-13 15:08:53","2025-10-13 15:08:53"
488,133,"Sector 133 Yard","West End Road",28.757100,77.354200,"2025-10-13 15:08:53","2025-10-13 15:08:53"
489,134,"Sector 134 Dump","South Hill Corner",28.758200,77.355300,"2025-10-13 15:08:53","2025-10-13 15:08:53"
490,135,"Sector 135 Dump","Near Metro 8",28.759300,77.356400,"2025-10-13 15:08:53","2025-10-13 15:08:53"
491,136,"Sector 136 Yard","Airport Road",28.760400,77.357500,"2025-10-13 15:08:53","2025-10-13 15:08:53"
492,137,"Sector 137 Dump","Logistics Hub",28.761500,77.358600,"2025-10-13 15:08:53","2025-10-13 15:08:53"
493,138,"Sector 138 Dump","IT Zone B",28.762600,77.359700,"2025-10-13 15:08:53","2025-10-13 15:08:53"
494,139,"Sector 139 Yard","Central Park",28.763700,77.360800,"2025-10-13 15:08:53","2025-10-13 15:08:53"
495,140,"Sector 140 Dump","Residential Plaza",28.764800,77.361900,"2025-10-13 15:08:53","2025-10-13 15:08:53"
496,141,"Sector 141 Dump","South Industrial",28.765900,77.363000,"2025-10-13 15:08:53","2025-10-13 15:08:53"
497,142,"Sector 142 Yard","West Industrial",28.767000,77.364100,"2025-10-13 15:08:53","2025-10-13 15:08:53"
498,143,"Sector 143 Dump","Metro Exit 10",28.768100,77.365200,"2025-10-13 15:08:53","2025-10-13 15:08:53"
499,144,"Sector 144 Dump","Eco Valley",28.769200,77.366300,"2025-10-13 15:08:53","2025-10-13 15:08:53"
500,145,"Sector 145 Yard","Tech Highway",28.770300,77.367400,"2025-10-13 15:08:53","2025-10-13 15:08:53"
501,146,"Sector 146 Dump","Logistics City",28.771400,77.368500,"2025-10-13 15:08:53","2025-10-13 15:08:53"
502,147,"Sector 147 Dump","North Hill Road",28.772500,77.369600,"2025-10-13 15:08:53","2025-10-13 15:08:53"
503,148,"Sector 148 Yard","Old Fort Lane",28.773600,77.370700,"2025-10-13 15:08:53","2025-10-13 15:08:53"
504,149,"Sector 149 Dump","Garden View",28.774700,77.371800,"2025-10-13 15:08:53","2025-10-13 15:08:53"
505,150,"Sector 150 Dump","North Outer Zone",28.775800,77.372900,"2025-10-13 15:08:53","2025-10-13 15:08:53"
506,151,"Sector 151 Yard","City Extension",28.776900,77.374000,"2025-10-13 15:08:53","2025-10-13 15:08:53"
507,152,"Sector 152 Dump","New Phase Area",28.778000,77.375100,"2025-10-13 15:08:53","2025-10-13 15:08:53"
508,153,"Sector 153 Dump","Central Link",28.779100,77.376200,"2025-10-13 15:08:53","2025-10-13 15:08:53"
509,154,"Sector 154 Yard","Green Belt",28.780200,77.377300,"2025-10-13 15:08:53","2025-10-13 15:08:53"
510,155,"Sector 155 Dump","Industrial Hub 2",28.781300,77.378400,"2025-10-13 15:08:53","2025-10-13 15:08:53"
511,156,"Sector 156 Dump","Eco City",28.782400,77.379500,"2025-10-13 15:08:53","2025-10-13 15:08:53"
512,157,"Sector 157 Yard","Residential Tower Zone",28.783500,77.380600,"2025-10-13 15:08:53","2025-10-13 15:08:53"
513,158,"Sector 158 Dump","Airport Link Road",28.784600,77.381700,"2025-10-13 15:08:53","2025-10-13 15:08:53"
514,159,"Sector 159 Dump","Near Highway 10",28.785700,77.382800,"2025-10-13 15:08:53","2025-10-13 15:08:53"
515,160,"Sector 160 Yard","South Outer Belt",28.786800,77.383900,"2025-10-13 15:08:53","2025-10-13 15:08:53"
516,161,"Sector 161 Dump","North Outer Belt",28.787900,77.385000,"2025-10-13 15:08:53","2025-10-13 15:08:53"
517,162,"Sector 162 Dump","Central Cross Road",28.789000,77.386100,"2025-10-13 15:08:53","2025-10-13 15:08:53"
518,163,"Sector 163 Yard","East Cross Road",28.790100,77.387200,"2025-10-13 15:08:53","2025-10-13 15:08:53"
519,164,"Sector 164 Dump","West Cross Road",28.791200,77.388300,"2025-10-13 15:08:53","2025-10-13 15:08:53"
520,165,"Sector 165 Dump","City Perimeter End",28.792300,77.389400,"2025-10-13 15:08:53","2025-10-13 15:08:53"
521,1,"North Zone Dump 1","12 Greenfield Street, North Zone",28.613900,77.209000,"2025-10-13 15:40:16","2025-10-13 15:40:16"
522,2,"East Zone Dump 1","34 Riverside Lane, East Zone",22.572600,88.363900,"2025-10-13 15:40:16","2025-10-13 15:40:16"
523,3,"West Zone Dump 1","56 Hilltop Avenue, West Zone",19.076000,72.877700,"2025-10-13 15:40:16","2025-10-13 15:40:16"
524,4,"Central Zone Dump 1","78 Lakeside Road, Central Zone",23.022500,72.571400,"2025-10-13 15:40:16","2025-10-13 15:40:16"
525,5,"South Zone Dump 1","90 Old Town Street, South Zone",12.971600,77.594600,"2025-10-13 15:40:16","2025-10-13 15:40:16"
526,6,"North Zone Dump 2","11 Tech Park Lane, North Zone",28.704100,77.102500,"2025-10-13 15:40:16","2025-10-13 15:40:16"
527,7,"East Zone Dump 2","23 Airport Area Road, East Zone",22.572600,88.363900,"2025-10-13 15:40:16","2025-10-13 15:40:16"
528,8,"West Zone Dump 2","45 Harbor Street, West Zone",19.218300,72.978100,"2025-10-13 15:40:16","2025-10-13 15:40:16"
529,9,"Central Zone Dump 2","67 University District, Central Zone",23.259900,77.412600,"2025-10-13 15:40:16","2025-10-13 15:40:16"
530,10,"South Zone Dump 2","89 Industrial Estate, South Zone",13.082700,80.270700,"2025-10-13 15:40:16","2025-10-13 15:40:16"
531,1,"North Zone Dump 3","12 Market Street, North Zone",28.535500,77.391000,"2025-10-13 15:40:16","2025-10-13 15:40:16"
532,2,"East Zone Dump 3","34 Residential East, East Zone",26.912400,75.787300,"2025-10-13 15:40:16","2025-10-13 15:40:16"
533,3,"West Zone Dump 3","56 Residential West, West Zone",18.520400,73.856700,"2025-10-13 15:40:16","2025-10-13 15:40:16"
534,4,"Central Zone Dump 3","78 Suburban North, Central Zone",23.344100,85.309600,"2025-10-13 15:40:16","2025-10-13 15:40:16"
535,5,"South Zone Dump 3","90 Suburban South, South Zone",11.016800,76.955800,"2025-10-13 15:40:16","2025-10-13 15:40:16"
536,6,"North Zone Dump 4","11 Old Industrial, North Zone",28.408900,77.317800,"2025-10-13 15:40:16","2025-10-13 15:40:16"
537,7,"East Zone Dump 4","23 New Industrial, East Zone",25.435800,81.846300,"2025-10-13 15:40:16","2025-10-13 15:40:16"
538,8,"West Zone Dump 4","45 Business Park, West Zone",21.145800,79.088200,"2025-10-13 15:40:16","2025-10-13 15:40:16"
539,9,"Central Zone Dump 4","67 Mall District, Central Zone",22.307200,73.181200,"2025-10-13 15:40:16","2025-10-13 15:40:16"
540,10,"South Zone Dump 4","89 Sports Complex, South Zone",10.850500,76.271100,"2025-10-13 15:40:16","2025-10-13 15:40:16"
541,1,"North Zone Dump 5","12 Medical Hub, North Zone",28.408900,77.317800,"2025-10-13 15:40:16","2025-10-13 15:40:16"
542,2,"East Zone Dump 5","34 Cultural Zone, East Zone",22.572600,88.363900,"2025-10-13 15:40:16","2025-10-13 15:40:16"
543,3,"West Zone Dump 5","56 Government Zone, West Zone",19.218300,72.978100,"2025-10-13 15:40:16","2025-10-13 15:40:16"
544,4,"Central Zone Dump 5","78 Transport Hub, Central Zone",23.259900,77.412600,"2025-10-13 15:40:16","2025-10-13 15:40:16"
545,5,"South Zone Dump 5","90 Waterfront, South Zone",13.082700,80.270700,"2025-10-13 15:40:16","2025-10-13 15:40:16"
546,6,"North Zone Dump 6","11 Education Zone, North Zone",28.613900,77.209000,"2025-10-13 15:40:16","2025-10-13 15:40:16"
547,7,"East Zone Dump 6","23 Tech Village, East Zone",22.572600,88.363900,"2025-10-13 15:40:16","2025-10-13 15:40:16"
548,8,"West Zone Dump 6","45 Eco Park, West Zone",19.076000,72.877700,"2025-10-13 15:40:16","2025-10-13 15:40:16"
549,9,"Central Zone Dump 6","67 Industrial North, Central Zone",23.022500,72.571400,"2025-10-13 15:40:16","2025-10-13 15:40:16"
550,10,"South Zone Dump 6","89 Industrial South, South Zone",12.971600,77.594600,"2025-10-13 15:40:16","2025-10-13 15:40:16"
551,1,"North Zone Dump 7","12 Residential Heights, North Zone",28.704100,77.102500,"2025-10-13 15:40:16","2025-10-13 15:40:16"
552,2,"East Zone Dump 7","34 Commerce Street, East Zone",22.572600,88.363900,"2025-10-13 15:40:16","2025-10-13 15:40:16"
553,3,"West Zone Dump 7","56 Food Street, West Zone",19.218300,72.978100,"2025-10-13 15:40:16","2025-10-13 15:40:16"
554,4,"Central Zone Dump 7","78 Market Lane, Central Zone",23.259900,77.412600,"2025-10-13 15:40:16","2025-10-13 15:40:16"
555,5,"South Zone Dump 7","90 Green Lane, South Zone",13.082700,80.270700,"2025-10-13 15:40:16","2025-10-13 15:40:16"
556,6,"North Zone Dump 8","11 Lakeview, North Zone",28.535500,77.391000,"2025-10-13 15:40:16","2025-10-13 15:40:16"
557,7,"East Zone Dump 8","23 Riverbank, East Zone",26.912400,75.787300,"2025-10-13 15:40:16","2025-10-13 15:40:16"
558,8,"West Zone Dump 8","45 Harbor Road, West Zone",18.520400,73.856700,"2025-10-13 15:40:16","2025-10-13 15:40:16"
559,9,"Central Zone Dump 8","67 Airport Road, Central Zone",23.344100,85.309600,"2025-10-13 15:40:16","2025-10-13 15:40:16"
560,10,"South Zone Dump 8","89 Industrial Park, South Zone",11.016800,76.955800,"2025-10-13 15:40:16","2025-10-13 15:40:16"
561,1,"North Zone Dump 9","12 Tech Avenue, North Zone",28.408900,77.317800,"2025-10-13 15:40:16","2025-10-13 15:40:16"
562,2,"East Zone Dump 9","34 University Road, East Zone",22.572600,88.363900,"2025-10-13 15:40:16","2025-10-13 15:40:16"
563,3,"West Zone Dump 9","56 Historic Lane, West Zone",19.218300,72.978100,"2025-10-13 15:40:16","2025-10-13 15:40:16"
564,4,"Central Zone Dump 9","78 Garden District, Central Zone",23.259900,77.412600,"2025-10-13 15:40:16","2025-10-13 15:40:16"
565,5,"South Zone Dump 9","90 Suburban Heights, South Zone",13.082700,80.270700,"2025-10-13 15:40:16","2025-10-13 15:40:16"
566,6,"North Zone Dump 10","11 Commerce Avenue, North Zone",28.613900,77.209000,"2025-10-13 15:40:16","2025-10-13 15:40:16"
567,7,"East Zone Dump 10","23 Industrial Boulevard, East Zone",22.572600,88.363900,"2025-10-13 15:40:16","2025-10-13 15:40:16"
568,8,"West Zone Dump 10","45 Residential Square, West Zone",19.076000,72.877700,"2025-10-13 15:40:16","2025-10-13 15:40:16"
569,9,"Central Zone Dump 10","67 Central Park Area, Central Zone",23.022500,72.571400,"2025-10-13 15:40:16","2025-10-13 15:40:16"
570,10,"South Zone Dump 10","89 Market Plaza, South Zone",12.971600,77.594600,"2025-10-13 15:40:16","2025-10-13 15:40:16"
571,1,"North Zone Dump 11","12 Greenfield Street, North Zone",28.620000,77.210000,"2025-10-13 15:40:16","2025-10-13 15:40:16"
572,2,"East Zone Dump 11","34 Riverside Lane, East Zone",22.575000,88.365000,"2025-10-13 15:40:16","2025-10-13 15:40:16"
573,3,"West Zone Dump 11","56 Hilltop Avenue, West Zone",19.080000,72.880000,"2025-10-13 15:40:16","2025-10-13 15:40:16"
574,4,"Central Zone Dump 11","78 Lakeside Road, Central Zone",23.025000,72.575000,"2025-10-13 15:40:16","2025-10-13 15:40:16"
575,5,"South Zone Dump 11","90 Old Town Street, South Zone",12.975000,77.600000,"2025-10-13 15:40:16","2025-10-13 15:40:16"
576,6,"North Zone Dump 12","11 Tech Park Lane, North Zone",28.710000,77.105000,"2025-10-13 15:40:16","2025-10-13 15:40:16"
577,7,"East Zone Dump 12","23 Airport Area Road, East Zone",22.575500,88.364500,"2025-10-13 15:40:16","2025-10-13 15:40:16"
578,8,"West Zone Dump 12","45 Harbor Street, West Zone",19.220000,72.980000,"2025-10-13 15:40:16","2025-10-13 15:40:16"
579,9,"Central Zone Dump 12","67 University District, Central Zone",23.260000,77.415000,"2025-10-13 15:40:16","2025-10-13 15:40:16"
580,10,"South Zone Dump 12","89 Industrial Estate, South Zone",13.085000,80.275000,"2025-10-13 15:40:16","2025-10-13 15:40:16"
581,1,"North Zone Dump 13","12 Market Street, North Zone",28.540000,77.395000,"2025-10-13 15:40:16","2025-10-13 15:40:16"
582,2,"East Zone Dump 13","34 Residential East, East Zone",26.915000,75.790000,"2025-10-13 15:40:16","2025-10-13 15:40:16"
583,3,"West Zone Dump 13","56 Residential West, West Zone",18.525000,73.860000,"2025-10-13 15:40:16","2025-10-13 15:40:16"
584,4,"Central Zone Dump 13","78 Suburban North, Central Zone",23.350000,85.310000,"2025-10-13 15:40:16","2025-10-13 15:40:16"
585,5,"South Zone Dump 13","90 Suburban South, South Zone",11.020000,76.960000,"2025-10-13 15:40:16","2025-10-13 15:40:16"
586,6,"North Zone Dump 14","11 Old Industrial, North Zone",28.415000,77.320000,"2025-10-13 15:40:16","2025-10-13 15:40:16"
587,7,"East Zone Dump 14","23 New Industrial, East Zone",25.440000,81.850000,"2025-10-13 15:40:16","2025-10-13 15:40:16"
588,8,"West Zone Dump 14","45 Business Park, West Zone",21.150000,79.090000,"2025-10-13 15:40:16","2025-10-13 15:40:16"
589,9,"Central Zone Dump 14","67 Mall District, Central Zone",22.310000,73.185000,"2025-10-13 15:40:16","2025-10-13 15:40:16"
590,10,"South Zone Dump 14","89 Sports Complex, South Zone",10.855000,76.275000,"2025-10-13 15:40:16","2025-10-13 15:40:16"
591,1,"North Zone Dump 15","12 Medical Hub, North Zone",28.410000,77.318000,"2025-10-13 15:40:16","2025-10-13 15:40:16"
592,2,"East Zone Dump 15","34 Cultural Zone, East Zone",22.573000,88.364000,"2025-10-13 15:40:16","2025-10-13 15:40:16"
593,3,"West Zone Dump 15","56 Government Zone, West Zone",19.220500,72.979000,"2025-10-13 15:40:16","2025-10-13 15:40:16"
594,4,"Central Zone Dump 15","78 Transport Hub, Central Zone",23.261000,77.418000,"2025-10-13 15:40:16","2025-10-13 15:40:16"
595,5,"South Zone Dump 15","90 Waterfront, South Zone",13.085500,80.272000,"2025-10-13 15:40:16","2025-10-13 15:40:16"
596,6,"North Zone Dump 16","11 Education Zone, North Zone",28.615000,77.212000,"2025-10-13 15:40:16","2025-10-13 15:40:16"
597,7,"East Zone Dump 16","23 Tech Village, East Zone",22.574000,88.365500,"2025-10-13 15:40:16","2025-10-13 15:40:16"
598,8,"West Zone Dump 16","45 Eco Park, West Zone",19.078000,72.879000,"2025-10-13 15:40:16","2025-10-13 15:40:16"
599,9,"Central Zone Dump 16","67 Industrial North, Central Zone",23.025500,72.576000,"2025-10-13 15:40:16","2025-10-13 15:40:16"
600,10,"South Zone Dump 16","89 Industrial South, South Zone",12.973000,77.596000,"2025-10-13 15:40:16","2025-10-13 15:40:16"
601,1,"North Zone Dump 17","12 Residential Heights, North Zone",28.705500,77.103000,"2025-10-13 15:40:16","2025-10-13 15:40:16"
602,2,"East Zone Dump 17","34 Commerce Street, East Zone",22.573500,88.364200,"2025-10-13 15:40:16","2025-10-13 15:40:16"
603,3,"West Zone Dump 17","56 Food Street, West Zone",19.222000,72.981000,"2025-10-13 15:40:16","2025-10-13 15:40:16"
604,4,"Central Zone Dump 17","78 Market Lane, Central Zone",23.262000,77.419000,"2025-10-13 15:40:16","2025-10-13 15:40:16"
605,5,"South Zone Dump 17","90 Green Lane, South Zone",13.084000,80.271000,"2025-10-13 15:40:16","2025-10-13 15:40:16"
606,6,"North Zone Dump 18","11 Lakeview, North Zone",28.538000,77.392000,"2025-10-13 15:40:16","2025-10-13 15:40:16"
607,7,"East Zone Dump 18","23 Riverbank, East Zone",26.915500,75.792000,"2025-10-13 15:40:16","2025-10-13 15:40:16"
608,8,"West Zone Dump 18","45 Harbor Road, West Zone",18.522000,73.858000,"2025-10-13 15:40:16","2025-10-13 15:40:16"
609,9,"Central Zone Dump 18","67 Airport Road, Central Zone",23.345000,85.311000,"2025-10-13 15:40:16","2025-10-13 15:40:16"
610,10,"South Zone Dump 18","89 Industrial Park, South Zone",11.018000,76.958000,"2025-10-13 15:40:16","2025-10-13 15:40:16"
611,1,"North Zone Dump 19","12 Tech Avenue, North Zone",28.412000,77.319000,"2025-10-13 15:40:16","2025-10-13 15:40:16"
612,2,"East Zone Dump 19","34 University Road, East Zone",22.573800,88.364800,"2025-10-13 15:40:16","2025-10-13 15:40:16"
613,3,"West Zone Dump 19","56 Historic Lane, West Zone",19.223000,72.982000,"2025-10-13 15:40:16","2025-10-13 15:40:16"
614,4,"Central Zone Dump 19","78 Garden District, Central Zone",23.263000,77.420000,"2025-10-13 15:40:16","2025-10-13 15:40:16"
615,5,"South Zone Dump 19","90 Suburban Heights, South Zone",13.086000,80.276000,"2025-10-13 15:40:16","2025-10-13 15:40:16"
616,6,"North Zone Dump 20","11 Commerce Avenue, North Zone",28.617000,77.215000,"2025-10-13 15:40:16","2025-10-13 15:40:16"
617,7,"East Zone Dump 20","23 Industrial Boulevard, East Zone",22.574500,88.366000,"2025-10-13 15:40:16","2025-10-13 15:40:16"
618,8,"West Zone Dump 20","45 Residential Square, West Zone",19.080500,72.883000,"2025-10-13 15:40:16","2025-10-13 15:40:16"
619,9,"Central Zone Dump 20","67 Central Park Area, Central Zone",23.027000,72.580000,"2025-10-13 15:40:16","2025-10-13 15:40:16"
620,10,"South Zone Dump 20","89 Market Plaza, South Zone",12.978000,77.598000,"2025-10-13 15:40:16","2025-10-13 15:40:16"
621,1,"North Zone Dump 21","12 Harbor Lane, North Zone",28.622000,77.218000,"2025-10-13 15:40:16","2025-10-13 15:40:16"
622,2,"East Zone Dump 21","34 Airport Boulevard, East Zone",22.575800,88.367000,"2025-10-13 15:40:16","2025-10-13 15:40:16"
623,3,"West Zone Dump 21","56 Tech Street, West Zone",19.085000,72.885000,"2025-10-13 15:40:16","2025-10-13 15:40:16"
624,4,"Central Zone Dump 21","78 Industrial Road, Central Zone",23.029000,72.585000,"2025-10-13 15:40:16","2025-10-13 15:40:16"
625,5,"South Zone Dump 21","90 University Square, South Zone",12.980000,77.600000,"2025-10-13 15:40:16","2025-10-13 15:40:16"
626,6,"North Zone Dump 22","11 Historic Avenue, North Zone",28.620500,77.220000,"2025-10-13 15:40:16","2025-10-13 15:40:16"
627,7,"East Zone Dump 22","23 Residential Park, East Zone",22.576500,88.368000,"2025-10-13 15:40:16","2025-10-13 15:40:16"
628,8,"West Zone Dump 22","45 Market Street North, West Zone",19.087000,72.887000,"2025-10-13 15:40:16","2025-10-13 15:40:16"
629,9,"Central Zone Dump 22","67 Market Street South, Central Zone",23.031000,72.588000,"2025-10-13 15:40:16","2025-10-13 15:40:16"
630,10,"South Zone Dump 22","89 Riverside Park, South Zone",12.982000,77.602000,"2025-10-13 15:40:16","2025-10-13 15:40:16"
631,1,"North Zone Dump 23","12 Lakeside Heights, North Zone",28.624000,77.222000,"2025-10-13 15:40:16","2025-10-13 15:40:16"
632,2,"East Zone Dump 23","34 Business Boulevard, East Zone",22.577500,88.369000,"2025-10-13 15:40:16","2025-10-13 15:40:16"
633,3,"West Zone Dump 23","56 Suburban Park, West Zone",19.088000,72.889000,"2025-10-13 15:40:16","2025-10-13 15:40:16"
634,4,"Central Zone Dump 23","78 Tech Plaza, Central Zone",23.033000,72.590000,"2025-10-13 15:40:16","2025-10-13 15:40:16"
635,5,"South Zone Dump 23","90 Industrial Complex, South Zone",12.985000,77.605000,"2025-10-13 15:40:16","2025-10-13 15:40:16"
636,6,"North Zone Dump 24","11 Cultural Lane, North Zone",28.626000,77.224000,"2025-10-13 15:40:16","2025-10-13 15:40:16"
637,7,"East Zone Dump 24","23 Medical Park, East Zone",22.578500,88.370000,"2025-10-13 15:40:16","2025-10-13 15:40:16"
638,8,"West Zone Dump 24","45 Education Park, West Zone",19.090000,72.891000,"2025-10-13 15:40:16","2025-10-13 15:40:16"
639,9,"Central Zone Dump 24","67 Sports Circle, Central Zone",23.035000,72.593000,"2025-10-13 15:40:16","2025-10-13 15:40:16"
640,10,"South Zone Dump 24","89 Cultural Park, South Zone",12.987000,77.608000,"2025-10-13 15:40:16","2025-10-13 15:40:16"
641,1,"North Zone Dump 25","12 Medical Circle, North Zone",28.628000,77.226000,"2025-10-13 15:40:16","2025-10-13 15:40:16"
642,2,"East Zone Dump 25","23 Green Park Circle, East Zone",22.579500,88.371000,"2025-10-13 15:40:16","2025-10-13 15:40:16"
643,3,"West Zone Dump 25","45 Historic Lane East, West Zone",19.092000,72.893000,"2025-10-13 15:40:16","2025-10-13 15:40:16"
644,4,"Central Zone Dump 25","67 Historic Lane West, Central Zone",23.037000,72.595000,"2025-10-13 15:40:16","2025-10-13 15:40:16"
645,5,"South Zone Dump 25","89 Commerce Park, South Zone",12.990000,77.610000,"2025-10-13 15:40:16","2025-10-13 15:40:16"
646,6,"North Zone Dump 26","12 Harbor Park, North Zone",28.630000,77.228000,"2025-10-13 15:40:16","2025-10-13 15:40:16"
647,7,"East Zone Dump 26","34 Airport Park, East Zone",22.580500,88.372000,"2025-10-13 15:40:16","2025-10-13 15:40:16"
648,8,"West Zone Dump 26","56 Tech Park East, West Zone",19.094000,72.895000,"2025-10-13 15:40:16","2025-10-13 15:40:16"
649,9,"Central Zone Dump 26","78 Tech Park West, Central Zone",23.039000,72.598000,"2025-10-13 15:40:16","2025-10-13 15:40:16"
650,10,"South Zone Dump 26","90 Industrial Lane East, South Zone",12.992000,77.613000,"2025-10-13 15:40:16","2025-10-13 15:40:16"
651,1,"North Zone Dump 27","11 Industrial Lane West, North Zone",28.632000,77.230000,"2025-10-13 15:40:16","2025-10-13 15:40:16"
652,2,"East Zone Dump 27","23 University Lane, East Zone",22.581500,88.373000,"2025-10-13 15:40:16","2025-10-13 15:40:16"
653,3,"West Zone Dump 27","45 Old Town Lane, West Zone",19.096000,72.897000,"2025-10-13 15:40:16","2025-10-13 15:40:16"
654,4,"Central Zone Dump 27","67 Residential Lane East, Central Zone",23.041000,72.600000,"2025-10-13 15:40:16","2025-10-13 15:40:16"
655,5,"South Zone Dump 27","89 Residential Lane West, South Zone",12.995000,77.615000,"2025-10-13 15:40:16","2025-10-13 15:40:16"
656,6,"North Zone Dump 28","12 Market Lane Central, North Zone",28.634000,77.232000,"2025-10-13 15:40:16","2025-10-13 15:40:16"
657,7,"East Zone Dump 28","34 Riverside Lane, East Zone",22.582500,88.374000,"2025-10-13 15:40:16","2025-10-13 15:40:16"
658,8,"West Zone Dump 28","56 Lakeside Lane, West Zone",19.098000,72.899000,"2025-10-13 15:40:16","2025-10-13 15:40:16"
659,9,"Central Zone Dump 28","78 Green Lane, Central Zone",23.043000,72.603000,"2025-10-13 15:40:16","2025-10-13 15:40:16"
660,10,"South Zone Dump 28","90 Harbor Lane, South Zone",12.997000,77.618000,"2025-10-13 15:40:16","2025-10-13 15:40:16"
661,1,"North Zone Dump 29","12 Industrial Park, North Zone",28.636000,77.234000,"2025-10-13 15:40:16","2025-10-13 15:40:16"
662,2,"East Zone Dump 29","23 University Park, East Zone",22.583500,88.375000,"2025-10-13 15:40:16","2025-10-13 15:40:16"
663,3,"West Zone Dump 29","45 Old Town Park, West Zone",19.100000,72.901000,"2025-10-13 15:40:16","2025-10-13 15:40:16"
664,4,"Central Zone Dump 29","67 Residential Park, Central Zone",23.045000,72.605000,"2025-10-13 15:40:16","2025-10-13 15:40:16"
665,5,"South Zone Dump 29","89 Market Park, South Zone",12.999000,77.620000,"2025-10-13 15:40:16","2025-10-13 15:40:16"
666,6,"North Zone Dump 30","11 Green Park, North Zone",28.638000,77.236000,"2025-10-13 15:40:16","2025-10-13 15:40:16"
667,7,"East Zone Dump 30","23 Tech Park, East Zone",22.584500,88.376000,"2025-10-13 15:40:16","2025-10-13 15:40:16"
668,8,"West Zone Dump 30","45 Business Park, West Zone",19.102000,72.903000,"2025-10-13 15:40:16","2025-10-13 15:40:16"
669,9,"Central Zone Dump 30","67 Commerce Park, Central Zone",23.047000,72.608000,"2025-10-13 15:40:16","2025-10-13 15:40:16"
670,10,"South Zone Dump 30","89 Riverside Park, South Zone",13.001000,77.623000,"2025-10-13 15:40:16","2025-10-13 15:40:16"
671,1,"North Zone Dump 31","12 Tech Boulevard, North Zone",28.640000,77.238000,"2025-10-13 15:40:16","2025-10-13 15:40:16"
672,2,"East Zone Dump 31","23 Harbor Boulevard, East Zone",22.585500,88.377000,"2025-10-13 15:40:16","2025-10-13 15:40:16"
673,3,"West Zone Dump 31","45 Industrial Boulevard, West Zone",19.104000,72.905000,"2025-10-13 15:40:16","2025-10-13 15:40:16"
674,4,"Central Zone Dump 31","67 Market Boulevard, Central Zone",23.049000,72.610000,"2025-10-13 15:40:16","2025-10-13 15:40:16"
675,5,"South Zone Dump 31","89 University Boulevard, South Zone",13.003000,77.625000,"2025-10-13 15:40:16","2025-10-13 15:40:16"
676,6,"North Zone Dump 32","11 Riverside Boulevard, North Zone",28.642000,77.240000,"2025-10-13 15:40:16","2025-10-13 15:40:16"
677,7,"East Zone Dump 32","23 Suburban Boulevard, East Zone",22.586500,88.378000,"2025-10-13 15:40:16","2025-10-13 15:40:16"
678,8,"West Zone Dump 32","45 Tech Lane, West Zone",19.106000,72.907000,"2025-10-13 15:40:16","2025-10-13 15:40:16"
679,9,"Central Zone Dump 32","67 Green Lane, Central Zone",23.051000,72.613000,"2025-10-13 15:40:16","2025-10-13 15:40:16"
680,10,"South Zone Dump 32","89 Commerce Lane, South Zone",13.005000,77.628000,"2025-10-13 15:40:16","2025-10-13 15:40:16"
681,1,"North Zone Dump 33","12 Industrial Lane, North Zone",28.644000,77.242000,"2025-10-13 15:40:16","2025-10-13 15:40:16"
682,2,"East Zone Dump 33","23 Harbor Lane, East Zone",22.587500,88.379000,"2025-10-13 15:40:16","2025-10-13 15:40:16"
683,3,"West Zone Dump 33","45 Market Lane, West Zone",19.108000,72.909000,"2025-10-13 15:40:16","2025-10-13 15:40:16"
684,4,"Central Zone Dump 33","67 Tech Lane, Central Zone",23.053000,72.616000,"2025-10-13 15:40:16","2025-10-13 15:40:16"
685,5,"South Zone Dump 33","89 Riverside Lane, South Zone",13.007000,77.630000,"2025-10-13 15:40:16","2025-10-13 15:40:16"
